{
    "links": {
        "self": "http://www.neowsapp.com/rest/v1/neo/54016224?api_key=iIulBulltgU6a56xZRHN4H3l9WmuAYTsLGpBGhQ2"
    },
    "id": "54016224",
    "neo_reference_id": "54016224",
    "name": "(2020 FH1)",
    "designation": "2020 FH1",
    "nasa_jpl_url": "http://ssd.jpl.nasa.gov/sbdb.cgi?sstr=54016224",
    "absolute_magnitude_h": 25.328,
    "estimated_diameter": {
        "kilometers": {
            "estimated_diameter_min": 0.0228536187,
            "estimated_diameter_max": 0.0511022449
        },
        "meters": {
            "estimated_diameter_min": 22.8536186719,
            "estimated_diameter_max": 51.1022448821
        },
        "miles": {
            "estimated_diameter_min": 0.0142005759,
            "estimated_diameter_max": 0.031753453
        },
        "feet": {
            "estimated_diameter_min": 74.9790662834,
            "estimated_diameter_max": 167.6582890991
        }
    },
    "is_potentially_hazardous_asteroid": false,
    "close_approach_data": [
        {
            "close_approach_date": "2020-02-29",
            "close_approach_date_full": "2020-Feb-29 05:54",
            "epoch_date_close_approach": 1582955640000,
            "relative_velocity": {
                "kilometers_per_second": "8.0568527667",
                "kilometers_per_hour": "29004.6699602931",
                "miles_per_hour": "18022.3739539388"
            },
            "miss_distance": {
                "astronomical": "0.0702984869",
                "lunar": "27.3461114041",
                "kilometers": "10516503.904462903",
                "miles": "6534652.5103699414"
            },
            "orbiting_body": "Earth"
        }
    ],
    "orbital_data": {
        "orbit_id": "3",
        "orbit_determination_date": "2020-08-22 06:32:55",
        "first_observation_date": "2020-03-16",
        "last_observation_date": "2020-03-25",
        "data_arc_in_days": 9,
        "observations_used": 26,
        "orbit_uncertainty": "8",
        "minimum_orbit_intersection": ".0662663",
        "jupiter_tisserand_invariant": "3.765",
        "epoch_osculation": "2458930.5",
        "eccentricity": ".4758335424652552",
        "semi_major_axis": "1.925042223639339",
        "inclination": "7.08767383407554",
        "ascending_node_longitude": "178.6573349495676",
        "orbital_period": "975.5708529071782",
        "perihelion_distance": "1.00904256296984",
        "perihelion_argument": "314.4258755804128",
        "aphelion_distance": "2.841041884308837",
        "perihelion_time": "2458886.822077411728",
        "mean_anomaly": "16.11779614460663",
        "mean_motion": ".3690147147459444",
        "equinox": "J2000",
        "orbit_class": {
            "orbit_class_type": "APO",
            "orbit_class_description": "Near-Earth asteroid orbits which cross the Earth’s orbit similar to that of 1862 Apollo",
            "orbit_class_range": "a (semi-major axis) > 1.0 AU; q (perihelion) < 1.017 AU"
        }
    },
    "is_sentry_object": false
}